[{"OBJECT_NAME":"HERMES-2","OBJECT_ID":"2025-052AK","EPOCH":"2026-03-09T22:17:00.130272","MEAN_MOTION":15.28021069,"ECCENTRICITY":0.00063399,"INCLINATION":97.4004,"RA_OF_ASC_NODE":324.4926,"ARG_OF_PERICENTER":99.416,"MEAN_ANOMALY":260.7796,"EPHEMERIS_TYPE":0,"CLASSIFICATION_TYPE":"U","NORAD_CAT_ID":63243,"ELEMENT_SET_NO":999,"REV_AT_EPOCH":5485,"BSTAR":0.00034839454,"MEAN_MOTION_DOT":9.456e-5,"MEAN_MOTION_DDOT":0},{"OBJECT_NAME":"STARLINK-35857","OBJECT_ID":"2025-303Z","EPOCH":"2026-03-09T01:56:45.507264","MEAN_MOTION":15.27594448,"ECCENTRICITY":0.00011,"INCLINATION":43.0011,"RA_OF_ASC_NODE":314.0191,"ARG_OF_PERICENTER":308.1629,"MEAN_ANOMALY":51.9124,"EPHEMERIS_TYPE":0,"CLASSIFICATION_TYPE":"U","NORAD_CAT_ID":67186,"ELEMENT_SET_NO":999,"REV_AT_EPOCH":1264,"BSTAR":0.00093066942,"MEAN_MOTION_DOT":0.00025447,"MEAN_MOTION_DDOT":0}]
